{"type": "FeatureCollection", "features": [ {"type": "Feature", "properties": {"norad_id": 45358, "name": "COSMOS 2545 (760)", "group": "gnss", "lat": 4.2044025421397, "lon": -38.87284233446974, "alt_km": 19142.772525368615, "timestamp": "2025-12-08T05:48:09.279056+00:00", "meta": {"OBJECT_NAME": "COSMOS 2545 (760)", "OBJECT_ID": "2020-018A", "EPOCH": "2025-12-07T07:07:55.705728", "MEAN_MOTION": 2.13102386, "ECCENTRICITY": 0.00117441, "INCLINATION": 64.4728, "RA_OF_ASC_NODE": 319.1607, "ARG_OF_PERICENTER": 249.0045, "MEAN_ANOMALY": 110.8633, "EPHEMERIS_TYPE": 0, "CLASSIFICATION_TYPE": "U", "NORAD_CAT_ID": 45358, "ELEMENT_SET_NO": 999, "REV_AT_EPOCH": 4457, "BSTAR": 0, "MEAN_MOTION_DOT": -5e-07, "MEAN_MOTION_DDOT": 0}, "tle": {"line1": "1 45358U 20018A   25341.29717252 -.00000050  00000+0  00000+0 0  9990", "line2": "2 45358  64.4728 319.1607 0011744 249.0045 110.8633  2.13102386 44574"}}, "geometry": {"type": "Point", "coordinates": [-38.87284233446974, 4.2044025421397]}}, {"type": "Feature", "properties": {"norad_id": 45807, "name": "BEIDOU-3 G3 (C61)", "group": "gnss", "lat": -0.9552697634169077, "lon": -85.2925352617666, "alt_km": 35788.66640338863, "timestamp": "2025-12-08T05:48:09.279069+00:00", "meta": {"OBJECT_NAME": "BEIDOU-3 G3 (C61)", "OBJECT_ID": "2020-040A", "EPOCH": "2025-12-07T22:43:12.465984", "MEAN_MOTION": 1.0027613, "ECCENTRICITY": 0.00059824, "INCLINATION": 1.9793, "RA_OF_ASC_NODE": 66.5774, "ARG_OF_PERICENTER": 306.2701, "MEAN_ANOMALY": 155.4123, "EPHEMERIS_TYPE": 0, "CLASSIFICATION_TYPE": "U", "NORAD_CAT_ID": 45807, "ELEMENT_SET_NO": 999, "REV_AT_EPOCH": 2015, "BSTAR": 0, "MEAN_MOTION_DOT": -3.51e-06, "MEAN_MOTION_DDOT": 0}, "tle": {"line1": "1 45807U 20040A   25341.94667206 -.00000351  00000+0  00000+0 0  9993", "line2": "2 45807   1.9793  66.5774 0005982 306.2701 155.4123  1.00276130 20152"}}, "geometry": {"type": "Point", "coordinates": [-85.2925352617666, -0.9552697634169077]}}, {"type": "Feature", "properties": {"norad_id": 45854, "name": "GPS BIII-3  (PRN 23)", "group": "gnss", "lat": -18.866548771416742, "lon": 23.330934007792976, "alt_km": 20295.810325097373, "timestamp": "2025-12-08T05:48:09.279080+00:00", "meta": {"OBJECT_NAME": "GPS BIII-3  (PRN 23)", "OBJECT_ID": "2020-041A", "EPOCH": "2025-12-07T06:57:27.444672", "MEAN_MOTION": 2.00561718, "ECCENTRICITY": 0.00603563, "INCLINATION": 56.5433, "RA_OF_ASC_NODE": 36.3977, "ARG_OF_PERICENTER": 203.2104, "MEAN_ANOMALY": 166.2515, "EPHEMERIS_TYPE": 0, "CLASSIFICATION_TYPE": "U", "NORAD_CAT_ID": 45854, "ELEMENT_SET_NO": 999, "REV_AT_EPOCH": 4019, "BSTAR": 0, "MEAN_MOTION_DOT": -7.4e-07, "MEAN_MOTION_DDOT": 0}, "tle": {"line1": "1 45854U 20041A   25341.28990098 -.00000074  00000+0  00000+0 0  9993", "line2": "2 45854  56.5433  36.3977 0060356 203.2104 166.2515  2.00561718 40191"}}, "geometry": {"type": "Point", "coordinates": [23.330934007792976, -18.866548771416742]}}, {"type": "Feature", "properties": {"norad_id": 46114, "name": "GALAXY 30 (WAAS/PRN 135)", "group": "gnss", "lat": 0.0337360694703499, "lon": 39.29698314369885, "alt_km": 35794.62925339947, "timestamp": "2025-12-08T05:48:09.279092+00:00", "meta": {"OBJECT_NAME": "GALAXY 30 (WAAS/PRN 135)", "OBJECT_ID": "2020-056C", "EPOCH": "2025-12-07T16:27:51.213024", "MEAN_MOTION": 1.00270815, "ECCENTRICITY": 0.00024466, "INCLINATION": 0.0172, "RA_OF_ASC_NODE": 342.6462, "ARG_OF_PERICENTER": 273.2329, "MEAN_ANOMALY": 302.7854, "EPHEMERIS_TYPE": 0, "CLASSIFICATION_TYPE": "U", "NORAD_CAT_ID": 46114, "ELEMENT_SET_NO": 999, "REV_AT_EPOCH": 1937, "BSTAR": 0, "MEAN_MOTION_DOT": 4e-07, "MEAN_MOTION_DDOT": 0}, "tle": {"line1": "1 46114U 20056C   25341.68600941  .00000040  00000+0  00000+0 0  9990", "line2": "2 46114   0.0172 342.6462 0002446 273.2329 302.7854  1.00270815 19372"}}, "geometry": {"type": "Point", "coordinates": [39.29698314369885, 0.0337360694703499]}}, {"type": "Feature", "properties": {"norad_id": 46805, "name": "COSMOS 2547 (705K)", "group": "gnss", "lat": -35.814602988767, "lon": 38.907901370681785, "alt_km": 19118.963701397894, "timestamp": "2025-12-08T05:48:09.279105+00:00", "meta": {"OBJECT_NAME": "COSMOS 2547 (705K)", "OBJECT_ID": "2020-075A", "EPOCH": "2025-12-07T11:38:43.890144", "MEAN_MOTION": 2.13099936, "ECCENTRICITY": 0.00062259, "INCLINATION": 64.5959, "RA_OF_ASC_NODE": 198.872, "ARG_OF_PERICENTER": 228.8707, "MEAN_ANOMALY": 131.1578, "EPHEMERIS_TYPE": 0, "CLASSIFICATION_TYPE": "U", "NORAD_CAT_ID": 46805, "ELEMENT_SET_NO": 999, "REV_AT_EPOCH": 3982, "BSTAR": 0, "MEAN_MOTION_DOT": 5.8e-07, "MEAN_MOTION_DDOT": 0}, "tle": {"line1": "1 46805U 20075A   25341.48523021  .00000058  00000+0  00000+0 0  9998", "line2": "2 46805  64.5959 198.8720 0006225 228.8707 131.1578  2.13099936 39827"}}, "geometry": {"type": "Point", "coordinates": [38.907901370681785, -35.814602988767]}}, {"type": "Feature", "properties": {"norad_id": 46826, "name": "GPS BIII-4  (PRN 14)", "group": "gnss", "lat": -39.45141591947156, "lon": -178.16002854884965, "alt_km": 20227.037058577695, "timestamp": "2025-12-08T05:48:09.279116+00:00", "meta": {"OBJECT_NAME": "GPS BIII-4  (PRN 14)", "OBJECT_ID": "2020-078A", "EPOCH": "2025-11-12T03:01:29.191584", "MEAN_MOTION": 2.00567032, "ECCENTRICITY": 0.00639112, "INCLINATION": 54.0223, "RA_OF_ASC_NODE": 219.5836, "ARG_OF_PERICENTER": 203.4986, "MEAN_ANOMALY": 326.7753, "EPHEMERIS_TYPE": 0, "CLASSIFICATION_TYPE": "U", "NORAD_CAT_ID": 46826, "ELEMENT_SET_NO": 999, "REV_AT_EPOCH": 3715, "BSTAR": 0, "MEAN_MOTION_DOT": -3.4e-07, "MEAN_MOTION_DDOT": 0}, "tle": {"line1": "1 46826U 20078A   25316.12603231 -.00000034  00000+0  00000+0 0  9994", "line2": "2 46826  54.0223 219.5836 0063911 203.4986 326.7753  2.00567032 37154"}}, "geometry": {"type": "Point", "coordinates": [-178.16002854884965, -39.45141591947156]}}, {"type": "Feature", "properties": {"norad_id": 48859, "name": "GPS BIII-5  (PRN 11)", "group": "gnss", "lat": 36.96437057928431, "lon": 128.6471448580245, "alt_km": 20190.122452491767, "timestamp": "2025-12-08T05:48:09.279141+00:00", "meta": {"OBJECT_NAME": "GPS BIII-5  (PRN 11)", "OBJECT_ID": "2021-054A", "EPOCH": "2025-11-30T17:12:22.002912", "MEAN_MOTION": 2.00553932, "ECCENTRICITY": 0.0024653, "INCLINATION": 55.2606, "RA_OF_ASC_NODE": 340.4377, "ARG_OF_PERICENTER": 232.9477, "MEAN_ANOMALY": 227.2059, "EPHEMERIS_TYPE": 0, "CLASSIFICATION_TYPE": "U", "NORAD_CAT_ID": 48859, "ELEMENT_SET_NO": 999, "REV_AT_EPOCH": 3277, "BSTAR": 0, "MEAN_MOTION_DOT": -5.5e-07, "MEAN_MOTION_DDOT": 0}, "tle": {"line1": "1 48859U 21054A   25334.71692133 -.00000055  00000+0  00000+0 0  9994", "line2": "2 48859  55.2606 340.4377 0024653 232.9477 227.2059  2.00553932 32777"}}, "geometry": {"type": "Point", "coordinates": [128.6471448580245, 36.96437057928431]}}, {"type": "Feature", "properties": {"norad_id": 49336, "name": "QZS-1R (QZSS/PRN 196)", "group": "gnss", "lat": -17.329440372748028, "lon": -73.22218211265108, "alt_km": 34108.72593131089, "timestamp": "2025-12-08T05:48:09.279153+00:00", "meta": {"OBJECT_NAME": "QZS-1R (QZSS/PRN 196)", "OBJECT_ID": "2021-096A", "EPOCH": "2025-12-05T14:57:38.876832", "MEAN_MOTION": 1.00259301, "ECCENTRICITY": 0.07539341, "INCLINATION": 37.062, "RA_OF_ASC_NODE": 82.4658, "ARG_OF_PERICENTER": 271.1853, "MEAN_ANOMALY": 80.5969, "EPHEMERIS_TYPE": 0, "CLASSIFICATION_TYPE": "U", "NORAD_CAT_ID": 49336, "ELEMENT_SET_NO": 999, "REV_AT_EPOCH": 1507, "BSTAR": 0, "MEAN_MOTION_DOT": -2.6e-06, "MEAN_MOTION_DDOT": 0}, "tle": {"line1": "1 49336U 21096A   25339.62336663 -.00000260  00000+0  00000+0 0  9997", "line2": "2 49336  37.0620  82.4658 0753934 271.1853  80.5969  1.00259301 15077"}}, "geometry": {"type": "Point", "coordinates": [-73.22218211265108, -17.329440372748028]}}, {"type": "Feature", "properties": {"norad_id": 49809, "name": "GSAT0223 (GALILEO 27)", "group": "gnss", "lat": -50.916344888290304, "lon": -65.67886369745406, "alt_km": 23217.246062204482, "timestamp": "2025-12-08T05:48:09.279168+00:00", "meta": {"OBJECT_NAME": "GSAT0223 (GALILEO 27)", "OBJECT_ID": "2021-116A", "EPOCH": "2025-12-07T10:58:36.115680", "MEAN_MOTION": 1.70475566, "ECCENTRICITY": 0.00047089, "INCLINATION": 57.2204, "RA_OF_ASC_NODE": 346.8553, "ARG_OF_PERICENTER": 250.7746, "MEAN_ANOMALY": 280.3454, "EPHEMERIS_TYPE": 0, "CLASSIFICATION_TYPE": "U", "NORAD_CAT_ID": 49809, "ELEMENT_SET_NO": 999, "REV_AT_EPOCH": 2491, "BSTAR": 0, "MEAN_MOTION_DOT": -8.4e-07, "MEAN_MOTION_DDOT": 0}, "tle": {"line1": "1 49809U 21116A   25341.45736245 -.00000084  00000+0  00000+0 0  9993", "line2": "2 49809  57.2204 346.8553 0004708 250.7746 280.3454  1.70475566 24919"}}, "geometry": {"type": "Point", "coordinates": [-65.67886369745406, -50.916344888290304]}}, {"type": "Feature", "properties": {"norad_id": 49810, "name": "GSAT0224 (GALILEO 28)", "group": "gnss", "lat": 36.56720349502367, "lon": 15.387902607069968, "alt_km": 23227.967517917696, "timestamp": "2025-12-08T05:48:09.279179+00:00", "meta": {"OBJECT_NAME": "GSAT0224 (GALILEO 28)", "OBJECT_ID": "2021-116B", "EPOCH": "2025-12-07T13:56:35.698272", "MEAN_MOTION": 1.7047563, "ECCENTRICITY": 0.00040182, "INCLINATION": 57.2213, "RA_OF_ASC_NODE": 346.8506, "ARG_OF_PERICENTER": 254.5241, "MEAN_ANOMALY": 105.0474, "EPHEMERIS_TYPE": 0, "CLASSIFICATION_TYPE": "U", "NORAD_CAT_ID": 49810, "ELEMENT_SET_NO": 999, "REV_AT_EPOCH": 2493, "BSTAR": 0, "MEAN_MOTION_DOT": -8.4e-07, "MEAN_MOTION_DDOT": 0}, "tle": {"line1": "1 49810U 21116B   25341.58096873 -.00000084  00000+0  00000+0 0  9995", "line2": "2 49810  57.2213 346.8506 0004018 254.5241 105.0474  1.70475630 24934"}}, "geometry": {"type": "Point", "coordinates": [15.387902607069968, 36.56720349502367]}}]}